NSS-11                  
1 26554U 00059A   26181.76397060  .00000034  00000+0  00000+0 0  9997
2 26554   2.1600  81.2417 0003209  14.4280 274.1838  1.00272153 41424
AMC-6                   
1 26580U 00067A   26181.77359065  .00000098  00000+0  00000+0 0  9999
2 26580   0.1853  83.4353 0004046  27.6442 311.2218  1.00274111 94025
AMC-15                  
1 28446U 04041A   26181.59958123 -.00000078  00000+0  00000+0 0  9997
2 28446   0.0140   8.4145 0002519  89.4870 291.5620  1.00272002 79438
NSS-10                  
1 28526U 05003A   26181.50778737 -.00000246  00000+0  00000+0 0  9994
2 28526   6.4811  70.2937 0003113  24.5014 329.1295  1.00271305 53285
ASTRA 1KR               
1 29055U 06012A   26181.80416730  .00000129  00000+0  00000+0 0  9997
2 29055   0.5074  83.2296 0003774   8.8104 135.3201  1.00270825 45831
ASTRA 1L                
1 31306U 07016A   26181.79555918 -.00000175  00000+0  00000+0 0  9996
2 31306   1.3552  81.4884 0005693  20.5189  78.7603  1.00272230 45122
ASTRA 4A                
1 32299U 07057A   26181.91364176  .00000043  00000+0  00000+0 0  9994
2 32299   0.0118 353.3226 0002649 108.1062 151.2517  1.00272172 51785
ASTRA 1M                
1 33436U 08057A   26181.80425398  .00000131  00000+0  00000+0 0  9999
2 33436   0.3299  82.6594 0005026  30.0730 115.0458  1.00271044 45871
NSS-9                   
1 33749U 09008A   26181.76535728  .00000081  00000+0  00000+0 0  9991
2 33749   1.2951  82.5404 0002433   8.1723 286.7105  1.00271862 63658
SES-7 (PROTOSTAR 2)     
1 34941U 09027A   26181.82177780 -.00000334  00000+0  00000+0 0  9996
2 34941   0.0200  49.4088 0000979 121.4227 152.1337  1.00271367 62762
NSS-12                  
1 36032U 09058A   26181.74036999  .00000082  00000+0  00000+0 0  9999
2 36032   0.0681 276.8699 0004951 150.8942 174.5643  1.00271732 61051
SES-1                   
1 36516U 10016A   26181.59817933 -.00000104  00000+0  00000+0 0  9996
2 36516   0.0206 320.6511 0002950 135.1829 297.1768  1.00272165 59169
ASTRA 3B                
1 36581U 10021A   26181.93169965  .00000146  00000+0  00000+0 0  9992
2 36581   1.5044  83.3919 0004204  13.0667 181.4285  1.00270441 59007
SES-3                   
1 37748U 11035A   26181.70852576 -.00000092  00000+0  00000+0 0  9997
2 37748   1.3601  82.9545 0002457   6.9246 340.9646  1.00272456 54727
ASTRA 1N                
1 37775U 11041A   26181.80416730  .00000130  00000+0  00000+0 0  9995
2 37775   0.0872  42.3043 0005940  55.9656 129.2708  1.00272154 44669
SES-2                   
1 37809U 11049A   26181.78303736 -.00000185  00000+0  00000+0 0  9990
2 37809   0.0931  93.3450 0003108   4.9824  15.4110  1.00271363 54100
QUETZSAT 1              
1 37826U 11054A   26181.78503071 -.00000231  00000+0  00000+0 0  9991
2 37826   0.0109  10.1241 0002988  94.5518  19.7908  1.00271199 50016
SES-4                   
1 38087U 12007A   26181.79599251 -.00000158  00000+0  00000+0 0  9994
2 38087   0.0225  41.9713 0002428  55.7201  85.7192  1.00269561 52366
SES-5                   
1 38652U 12036A   26181.80139397  .00000044  00000+0  00000+0 0  9990
2 38652   0.0479 316.3488 0002285 143.2223 112.7779  1.00272258 44596
ASTRA 2F                
1 38778U 12051A   26181.93169965  .00000160  00000+0  00000+0 0  9993
2 38778   0.0752 254.3491 0002231 275.6245 112.6253  1.00271636 41276
SES-6                   
1 39172U 13026A   26181.79235250 -.00000250  00000+0  00000+0 0  9991
2 39172   0.0249 324.4753 0002488 132.7711  66.3509  1.00272525 47869
O3B FM5                 
1 39188U 13031A   26181.43264792 -.00000020  00000+0  00000+0 0  9993
2 39188   0.0968 340.0041 0002884 105.2955 274.7326  5.00115679237709
O3B FM4                 
1 39189U 13031B   26181.55208456 -.00000020  00000+0  00000+0 0  9992
2 39189   0.0413 346.5039 0005135  97.2651 276.2887  5.00115486237703
O3B FM2                 
1 39190U 13031C   26181.41768321 -.00000020  00000+0  00000+0 0  9991
2 39190   0.0361 342.1759 0002748 113.2750 264.5796  5.00116107237771
O3B PFM                 
1 39191U 13031D   26181.43180331 -.00000020  00000+0  00000+0 0  9993
2 39191   0.0670 349.1783 0005339 101.5224 269.3597  5.00116104237324
ASTRA 2E                
1 39285U 13056A   26181.93169965  .00000161  00000+0  00000+0 0  9994
2 39285   0.0576 339.2387 0002561 129.1642 174.4819  1.00272935 46554
SES-8                   
1 39460U 13071A   26181.96781039 -.00000259  00000+0  00000+0 0  9990
2 39460   0.0459 268.0848 0003067 191.7109 262.6431  1.00270811 44565
ASTRA 5B                
1 39617U 14011B   26181.93169965  .00000147  00000+0  00000+0 0  9999
2 39617   0.0809 300.9228 0002231 171.7389 165.2371  1.00267257 44804
O3B FM3                 
1 40079U 14038A   26181.29859545 -.00000020  00000+0  00000+0 0  9992
2 40079   0.0478 353.2817 0002489 162.0005 204.7289  5.00115768213705
O3B FM7                 
1 40080U 14038B   26181.24471478 -.00000020  00000+0  00000+0 0  9994
2 40080   0.0461 344.3822 0003716  85.9373 289.7198  5.00115743218532
O3B FM6                 
1 40081U 14038C   26181.47158301 -.00000020  00000+0  00000+0 0  9997
2 40081   0.0466 350.0195 0002643 107.8141 262.1956  5.00115772218494
O3B FM8                 
1 40082U 14038D   26181.12504659 -.00000020  00000+0  00000+0 0  9991
2 40082   0.0464 348.8057 0002769 111.5478 259.6768  5.00116170218595
O3B FM10                
1 40348U 14083A   26181.35218119 -.00000020  00000+0  00000+0 0  9994
2 40348   0.0357 330.6093 0002895 132.1065 257.3157  5.00115454210549
O3B FM11                
1 40349U 14083B   26181.76460747 -.00000019  00000+0  00000+0 0  9994
2 40349   0.0553 352.7970 0002630  89.5880 277.6441  5.00115614210587
O3B FM12                
1 40350U 14083C   26181.39182891 -.00000020  00000+0  00000+0 0  9998
2 40350   0.0544 353.0210 0002521 103.1075 263.8994  5.00116034210585
O3B FM9                 
1 40351U 14083D   26181.61854689 -.00000019  00000+0  00000+0 0  9993
2 40351   0.0562 352.0709 0002668 105.2294 262.7292  5.00116132210731
ASTRA 2G                
1 40364U 14089A   26181.93169965  .00000161  00000+0  00000+0 0  9991
2 40364   0.0467 345.8248 0004701  96.6605 200.1402  1.00275496 42104
SES-9                   
1 41380U 16013A   26180.89503035 -.00000333  00000+0  00000+0 0  9995
2 41380   0.0169 324.8194 0002317 119.9023 263.7565  1.00265394 37568
SES-10                  
1 42432U 17017A   26181.57326001 -.00000262  00000+0  00000+0 0  9992
2 42432   0.0180  36.9617 0003032  66.4201 314.7290  1.00269215 33889
SES-15                  
1 42709U 17026A   26181.70349907  .00000071  00000+0  00000+0 0  9991
2 42709   0.0216 335.7797 0000735 110.5888 316.4941  1.00268794  7563
SES-11 (ECHOSTAR 105)   
1 42967U 17063A   26181.70826576 -.00000079  00000+0  00000+0 0  9999
2 42967   0.0236 322.2765 0002992 135.2890 331.2389  1.00271757 31854
SES-14                  
1 43175U 18012B   26181.79096583 -.00000268  00000+0  00000+0 0  9992
2 43175   0.0168  31.5497 0001269  66.7407  57.8086  1.00270769  7164
O3B FM15                
1 43231U 18024A   26181.68535915 -.00000019  00000+0  00000+0 0  9997
2 43231   0.0520   0.8167 0002629  97.1405 262.0718  5.00115850151704
O3B FM16                
1 43232U 18024B   26181.53779671 -.00000020  00000+0  00000+0 0  9993
2 43232   0.0520   5.5357 0002642  90.9040 263.5895  5.00116011151611
O3B FM14                
1 43233U 18024C   26181.37871592 -.00000020  00000+0  00000+0 0  9991
2 43233   0.0507   6.5013 0002889  92.1213 261.4093  5.00115826151616
O3B FM13                
1 43234U 18024D   26181.24469957 -.00000020  00000+0  00000+0 0  9996
2 43234   0.0538 326.2918 0002505  80.3508 313.3774  5.00115751151719
SES-12                  
1 43488U 18049A   26181.96781039 -.00000259  00000+0  00000+0 0  9995
2 43488   0.0118  15.1702 0000378 234.6689 112.5955  1.00270280 29550
O3B FM20                
1 44112U 19020A   26181.40477666 -.00000020  00000+0  00000+0 0  9993
2 44112   0.0523 357.2303 0002402  93.6594 269.1370  5.00115683132239
O3B FM19                
1 44113U 19020B   26181.43179188 -.00000020  00000+0  00000+0 0  9995
2 44113   0.0754 337.0449 0003818 103.5402 279.4573  5.00116035132099
O3B FM17                
1 44114U 19020C   26181.71185294 -.00000019  00000+0  00000+0 0  9990
2 44114   0.0349   9.5851 0002586  88.4541 261.9893  5.00115660132201
O3B FM18                
1 44115U 19020D   26181.05851765 -.00000020  00000+0  00000+0 0  9993
2 44115   0.0527 357.1628 0002775 101.6907 261.1771  5.00115447132297
SES-17                  
1 49332U 21095A   26181.57317334 -.00000261  00000+0  00000+0 0  9997
2 49332   0.0242  41.4677 0001230  56.2884 320.1217  1.00269366 17983
SES-22                  
1 52933U 22071A   26181.70159240  .00000115  00000+0  00000+0 0  9995
2 52933   0.0177  11.0684 0001314  80.7890 300.4685  1.00271930  7657
SES-20                  
1 53960U 22123A   26181.59888515 -.00000090  00000+0  00000+0 0  9998
2 53960   0.0202  59.4918 0002167  39.9780 291.6770  1.00269721 13663
SES-21                  
1 53961U 22123B   26180.99029678  .00000000  00000+0  00000+0 0  9999
2 53961   0.0399  24.7137 0000886  72.6667  46.2618  1.00268246  7347
O3B MPOWER F1           
1 54755U 22174A   26181.68035896 -.00000019  00000+0  00000+0 0  9994
2 54755   0.0507 340.4351 0006536 131.0201 148.3897  5.00114977 66037
O3B MPOWER F2           
1 54756U 22174B   26181.50283251 -.00000020  00000+0  00000+0 0  9998
2 54756   0.0466 340.3531 0005833 114.6953 265.0174  5.00115070 66110
SES-18                  
1 55970U 23038A   26180.56802275 -.00000090  00000+0  00000+0 0  9992
2 55970   0.0453 271.8954 0000799 237.1209 230.0202  1.00271951 12227
SES-19                  
1 55971U 23038B   26181.70237240  .00000098  00000+0  00000+0 0  9991
2 55971   0.0112  13.0490 0002013  89.5194 294.1566  1.00273974 12225
O3B MPOWER F4           
1 56367U 23059A   26181.56707740 -.00000020  00000+0  00000+0 0  9991
2 56367   0.0631 352.4281 0007692 112.2981 255.3583  5.00115549 59276
O3B MPOWER F3           
1 56368U 23059B   26181.40034804 -.00000020  00000+0  00000+0 0  9999
2 56368   0.0639 351.8833 0006708 104.9453 263.2469  5.00116532 55393
O3B MPOWER F5           
1 58346U 23175A   26181.50133033 -.00000020  00000+0  00000+0 0  9991
2 58346   0.0506  10.5381 0005325 106.3722 243.1433  5.00116015 50108
O3B MPOWER F6           
1 58347U 23175B   26181.40191101 -.00000020  00000+0  00000+0 0  9991
2 58347   0.0531   2.2825 0004477  93.4634 264.3043  5.00115998 49012
ASTRA 1P (SES-24)       
1 60086U 24115A   26181.80416730  .00000130  00000+0  00000+0 0  9992
2 60086   0.0603 341.3916 0000358 149.7180  96.4740  1.00269610  7332
O3B MPOWER F7           
1 62362U 24244A   26181.66818966 -.00000019  00000+0  00000+0 0  9992
2 62362   0.0669 345.5710 0006015 109.8580 264.6389  5.00115354 27203
O3B MPOWER F8           
1 62363U 24244B   26181.43524088 -.00000020  00000+0  00000+0 0  9999
2 62363   0.0145 346.4510 0005860 101.9839 271.6314  5.00115147 21534
O3B MPOWER F9           
1 64866U 25153A   26181.56853366 -.00000020  00000+0  00000+0 0  9997
2 64866   0.0598   7.8706 0006567 111.5197 240.6745  5.00115817 20234
O3B MPOWER F10          
1 64867U 25153B   26180.93488910 -.00000020  00000+0  00000+0 0  9997
2 64867   0.0573   4.1715 0002028 247.2264 108.5791  5.00114948 22675
